TJS-14                  
1 62804U 25017A   26185.22589735  .00000127  00000+0  00000+0 0  9996
2 62804   0.7459 296.7656 0001406 288.3016 156.8702  1.00272062  5449
SPAINSAT NG I           
1 62852U 25021A   26183.80216104  .00000162  00000+0  00000+0 0  9992
2 62852   0.0193  15.3608 0000576 142.6716  80.5656  1.00268491  4146
QZS-6 (MICHIBIKI-6)     
1 62876U 25023A   26185.09757164 -.00000221  00000+0  00000+0 0  9996
2 62876   0.0409 285.8861 0002040 192.2541 289.6314  1.00271094  5116
ZHONGXING-10R           
1 63075U 25036A   26185.17406031 -.00000340  00000+0  00000+0 0  9997
2 63075   0.0530 234.0571 0004164 274.1448 307.1805  1.00270175  5134
TJS-15                  
1 63157U 25045A   26183.75929199 -.00000254  00000+0  00000+0 0  9999
2 63157   0.3058  85.5733 0003804 301.9252 260.9777  1.00274962  4911
TIANLIAN 2-04           
1 63361U 25062A   26185.16682381 -.00000122  00000+0  00000+0 0  9995
2 63361   4.3334 274.1901 0031167   9.7478 138.3571  1.00270967  4773
TJS-16                  
1 63397U 25064A   26183.69857794 -.00000095  00000+0  00000+0 0  9993
2 63397   1.1359  81.3849 0002939 299.1841 312.2806  1.00272015  4542
TJS-17                  
1 63524U 25073A   26183.77560743 -.00000059  00000+0  00000+0 0  9999
2 63524   1.1020  82.5843 0001564 315.8143 326.1705  1.00271016  4441
TIANLIAN 2-05           
1 63662U 25084A   26183.30147235  .00000138  00000+0  00000+0 0  9997
2 63662   4.4149 279.6564 0003360 160.7561 328.9206  1.00276640  4532
TJS-19                  
1 63924U 25097A   26183.75314255 -.00000263  00000+0  00000+0 0  9999
2 63924   3.2611 317.6772 0003438 238.0724 137.4555  1.00271699  4308
CHINASAT 3B             
1 64062U 25106A   26184.89885795 -.00000033  00000+0  00000+0 0  9997
2 64062   0.0351 168.8277 0003785 325.3445 278.6334  1.00271863  4226
SXM-10                  
1 64290U 25122A   26183.70220316 -.00000007  00000+0  00000+0 0  9990
2 64290   0.0187  35.0781 0001794 337.5022  44.7826  1.00274129  3837
COSMOS 2589             
1 64467U 25131A   26183.75492887 -.00000280  00000+0  00000+0 0  9998
2 64467   0.0398 102.1054 0000936 108.8979  79.5624  1.00272301  3712
CHINASAT 9C             
1 64470U 25132A   26185.06850331 -.00000236  00000+0  00000+0 0  9992
2 64470   0.0473 237.7306 0003220 227.9340 293.2879  1.00273387  4318
MTG-S1                  
1 64723U 25143A   26185.22217068  .00000004  00000+0  00000+0 0  9999
2 64723   0.5907 342.5206 0003046 262.4259 116.8162  1.00272378  3592
DROR 1                  
1 64784U 25148A   26185.22139067 -.00000022  00000+0  00000+0 0  9994
2 64784   0.0160  22.7453 0002379  18.4098 316.7706  1.00272406  3467
SHIYAN-29               
1 65486U 25196A   26184.67454434 -.00000268  00000+0  00000+0 0  9995
2 65486  28.8384  18.3275 0013385 175.1681  66.1518  1.00280983  3044
NUSANTARA LIMA (NUSANT*)
1 65588U 25205A   26183.84247909 -.00000347  00000+0  00000+0 0  9992
2 65588   0.0021 103.8441 0000859  26.7647 206.4179  1.00276741  2876
TJS-20                  
1 66142U 25238A   26184.94942771  .00000038  00000+0  00000+0 0  9992
2 66142   5.4337 299.4784 0004698 172.1120 214.5542  1.00272344  2500
CMS-03 (GSAT-7R)        
1 66311U 25249B   26185.16561047 -.00000065  00000+0  00000+0 0  9991
2 66311   0.0537 256.7206 0001951 178.1546 340.9011  1.00271827  2514
VIASAT-3 F2             
1 66454U 25261A   26185.20657060 -.00000222  00000+0  00000+0 0  9994
2 66454   0.0434 193.4925 0000695 353.0216  91.1003  1.00272962  2961
SHIJIAN-28 (SJ-28)      
1 66549U 25277A   26185.11711579 -.00000347  00000+0  00000+0 0  9990
2 66549   4.4967 271.8603 0000853  44.0172 125.2703  1.00273849  2324
TJS-22                  
1 66990U 25290A   26184.83135500  .00000005  00000+0  00000+0 0  9997
2 66990   1.4884 286.7794 0002281 320.5344  40.3185  1.00273786  2191
TJS-23                  
1 67226U 25306A   26184.55717060  .00000030  00000+0  00000+0 0  9992
2 67226   5.5509 297.4032 0004694 186.4443 173.7781  1.00272664  2058
FENGYUN 4C              
1 67246U 25312A   26185.24858194 -.00000311  00000+0  00000+0 0  9995
2 67246   0.0424 177.4308 0000519   4.9728 322.3481  1.00271203  1956
SHIJIAN-29A (SJ-29A)    
1 67302U 25315A   26185.09410497 -.00000056  00000+0  00000+0 0  9990
2 67302   3.4382  94.7157 0003513  27.3589 267.0448  1.00271120  1780
SHIJIAN-29B (SJ-29B)    
1 67403U 25315C   26185.09410497 -.00000057  00000+0  00000+0 0  9993
2 67403   3.4371  94.7086 0004816  44.6442 249.8104  1.00272575  1858
ELEKTRO-L 5             
1 67756U 26028A   26185.00533583 -.00000086  00000+0  00000+0 0  9991
2 67756   0.2230 319.0716 0001863 180.4677 220.4725  1.00272036  1428
JAM-E JAM 1             
1 67757U 26028B   26185.15763709  .00000168  00000+0  00000+0 0  9993
2 67757   0.2273 307.7991 0001283 336.4751  88.6831  1.00269157  1294
ECHOSTAR 25             
1 68126U 26045A   26185.20047130  .00000000  00000+0  00000+0 0  9997
2 68126   0.0215  41.0556 0001634  75.7882 127.5504  1.00268910  1164
TJS-24                  
1 69235U 26116A   26185.16864382 -.00000220  00000+0  00000+0 0  9994
2 69235   0.0509  99.7168 0000209 357.1407 336.3240  1.00273825   390
