OBJECT_NAME,OBJECT_ID,EPOCH,MEAN_MOTION,ECCENTRICITY,INCLINATION,RA_OF_ASC_NODE,ARG_OF_PERICENTER,MEAN_ANOMALY,EPHEMERIS_TYPE,CLASSIFICATION_TYPE,NORAD_CAT_ID,ELEMENT_SET_NO,REV_AT_EPOCH,BSTAR,MEAN_MOTION_DOT,MEAN_MOTION_DDOT
TJS-14,2025-017A,2026-07-04T05:25:17.531040,1.00272062,.00014066,0.7459,296.7656,288.3016,156.8702,0,U,62804,999,544,0,.127E-5,0
SPAINSAT NG I,2025-021A,2026-07-02T19:15:06.713856,1.00268491,.00005769,0.0193,15.3608,142.6716,80.5656,0,U,62852,999,414,0,.162E-5,0
QZS-6 (MICHIBIKI-6),2025-023A,2026-07-04T02:20:30.189696,1.00271094,.000204,0.0409,285.8861,192.2541,289.6314,0,U,62876,999,511,0,-.221E-5,0
ZHONGXING-10R,2025-036A,2026-07-04T04:10:38.810784,1.00270175,.00041642,0.0530,234.0571,274.1448,307.1805,0,U,63075,999,513,0,-.34E-5,0
TJS-15,2025-045A,2026-07-02T18:13:22.827936,1.00274962,.0003804,0.3058,85.5733,301.9252,260.9777,0,U,63157,999,491,0,-.254E-5,0
TIANLIAN 2-04,2025-062A,2026-07-04T04:00:13.577184,1.00270967,.00311673,4.3334,274.1901,9.7478,138.3571,0,U,63361,999,477,0,-.122E-5,0
TJS-16,2025-064A,2026-07-02T16:45:57.134016,1.00272015,.0002939,1.1359,81.3849,299.1841,312.2806,0,U,63397,999,454,0,-.95E-6,0
TJS-17,2025-073A,2026-07-02T18:36:52.481952,1.00271016,.0001564,1.1020,82.5843,315.8143,326.1705,0,U,63524,999,444,0,-.59E-6,0
TIANLIAN 2-05,2025-084A,2026-07-02T07:14:07.211040,1.00276640,.000336,4.4149,279.6564,160.7561,328.9206,0,U,63662,999,453,0,.138E-5,0
TJS-19,2025-097A,2026-07-02T18:04:31.516320,1.00271699,.0003438,3.2611,317.6772,238.0724,137.4555,0,U,63924,999,430,0,-.263E-5,0
CHINASAT 3B,2025-106A,2026-07-03T21:34:21.326880,1.00271863,.00037859,0.0351,168.8277,325.3445,278.6334,0,U,64062,999,422,0,-.33E-6,0
SXM-10,2025-122A,2026-07-02T16:51:10.353024,1.00274129,.00017948,0.0187,35.0781,337.5022,44.7826,0,U,64290,999,383,0,-.7E-7,0
COSMOS 2589,2025-131A,2026-07-02T18:07:05.854368,1.00272301,.0000936,0.0398,102.1054,108.8979,79.5624,0,U,64467,999,371,0,-.28E-5,0
CHINASAT 9C,2025-132A,2026-07-04T01:38:38.685984,1.00273387,.00032204,0.0473,237.7306,227.9340,293.2879,0,U,64470,999,431,0,-.236E-5,0
MTG-S1,2025-143A,2026-07-04T05:19:55.546752,1.00272378,.00030463,0.5907,342.5206,262.4259,116.8162,0,U,64723,999,359,0,.4E-7,0
DROR 1,2025-148A,2026-07-04T05:18:48.153888,1.00272406,.0002379,0.0160,22.7453,18.4098,316.7706,0,U,64784,999,346,0,-.22E-6,0
SHIYAN-29,2025-196A,2026-07-03T16:11:20.630976,1.00280983,.00133853,28.8384,18.3275,175.1681,66.1518,0,U,65486,999,304,0,-.268E-5,0
NUSANTARA LIMA (NUSANTARA 5),2025-205A,2026-07-02T20:13:10.193376,1.00276741,.00008594,0.0021,103.8441,26.7647,206.4179,0,U,65588,999,287,0,-.347E-5,0
TJS-20,2025-238A,2026-07-03T22:47:10.554144,1.00272344,.00046984,5.4337,299.4784,172.1120,214.5542,0,U,66142,999,250,0,.38E-6,0
CMS-03 (GSAT-7R),2025-249B,2026-07-04T03:58:28.744608,1.00271827,.00019518,0.0537,256.7206,178.1546,340.9011,0,U,66311,999,251,0,-.65E-6,0
VIASAT-3 F2,2025-261A,2026-07-04T04:57:27.699840,1.00272962,.00006952,0.0434,193.4925,353.0216,91.1003,0,U,66454,999,296,0,-.222E-5,0
SHIJIAN-28 (SJ-28),2025-277A,2026-07-04T02:48:38.804256,1.00273849,.00008533,4.4967,271.8603,44.0172,125.2703,0,U,66549,999,232,0,-.347E-5,0
TJS-22,2025-290A,2026-07-03T19:57:09.072000,1.00273786,.00022813,1.4884,286.7794,320.5344,40.3185,0,U,66990,999,219,0,.5E-7,0
TJS-23,2025-306A,2026-07-03T13:22:19.539840,1.00272664,.00046948,5.5509,297.4032,186.4443,173.7781,0,U,67226,999,205,0,.3E-6,0
FENGYUN 4C,2025-312A,2026-07-04T05:57:57.479616,1.00271203,.00005194,0.0424,177.4308,4.9728,322.3481,0,U,67246,999,195,0,-.311E-5,0
SHIJIAN-29A (SJ-29A),2025-315A,2026-07-04T02:15:30.669408,1.00271120,.00035132,3.4382,94.7157,27.3589,267.0448,0,U,67302,999,178,0,-.56E-6,0
SHIJIAN-29B (SJ-29B),2025-315C,2026-07-04T02:15:30.669408,1.00272575,.00048166,3.4371,94.7086,44.6442,249.8104,0,U,67403,999,185,0,-.57E-6,0
ELEKTRO-L 5,2026-028A,2026-07-04T00:07:41.015712,1.00272036,.00018635,0.2230,319.0716,180.4677,220.4725,0,U,67756,999,142,0,-.86E-6,0
JAM-E JAM 1,2026-028B,2026-07-04T03:46:59.844576,1.00269157,.00012839,0.2273,307.7991,336.4751,88.6831,0,U,67757,999,129,0,.168E-5,0
ECHOSTAR 25,2026-045A,2026-07-04T04:48:40.720320,1.00268910,.00016346,0.0215,41.0556,75.7882,127.5504,0,U,68126,999,116,0,0,0
TJS-24,2026-116A,2026-07-04T04:02:50.826048,1.00273825,.0000209,0.0509,99.7168,357.1407,336.3240,0,U,69235,999,39,0,-.22E-5,0
